STARLINK-30260          
1 57524U 23115D   26068.18117568  .00003754  00000+0  14595-3 0  9999
2 57524  43.0010   4.4709 0001249 260.1510  99.9201 15.27565637142271
REAL                    
1 64875U 25154G   26068.72233414  .00022901  00000+0  82904-3 0  9994
2 64875  97.4133 137.2581 0001853 118.5876 241.5550 15.28408058 34830
